{
  "type": "FeatureCollection",
  "features": [
    {
      "type": "Feature",
      "properties": {
        "norad_id": 29268,
        "name": "ARIRANG-2 (KOMPSAT-2)",
        "group": "resource",
        "lat": -30.226554633143845,
        "lon": 176.8404603344579,
        "alt_km": 675.1768729816376,
        "timestamp": "2025-12-09T14:52:25.822378+00:00",
        "meta_object_name": "ARIRANG-2 (KOMPSAT-2)",
        "meta_object_id": "2006-031A",
        "meta_epoch": "2025-12-09T07:22:57.177408",
        "meta_mean_motion": 14.64488189,
        "meta_eccentricity": 0.00136851,
        "meta_inclination": 97.8259,
        "meta_ra_of_asc_node": 171.9475,
        "meta_arg_of_pericenter": 320.8525,
        "meta_mean_anomaly": 164.043,
        "meta_ephemeris_type": 0,
        "meta_classification_type": "U",
        "meta_norad_cat_id": 29268,
        "meta_element_set_no": 999,
        "meta_rev_at_epoch": 3368,
        "meta_bstar": 9.0583477e-05,
        "meta_mean_motion_dot": 4.35e-06,
        "meta_mean_motion_ddot": 0,
        "tle_line1": "1 29268U 06031A   25343.30760622  .00000435  00000+0  90583-4 0  9990",
        "tle_line2": "2 29268  97.8259 171.9475 0013685 320.8525 164.0430 14.64488189 33682"
      },
      "geometry": {
        "type": "Point",
        "coordinates": [
          176.8404603344579,
          -30.226554633143845
        ]
      }
    },
    {
      "type": "Feature",
      "properties": {
        "norad_id": 29709,
        "name": "LAPAN-TUBSAT",
        "group": "resource",
        "lat": 26.025079507878782,
        "lon": -30.288247289146092,
        "alt_km": 605.3726899862295,
        "timestamp": "2025-12-09T14:52:25.822389+00:00",
        "meta_object_name": "LAPAN-TUBSAT",
        "meta_object_id": "2007-001A",
        "meta_epoch": "2025-12-09T06:40:25.649760",
        "meta_mean_motion": 14.85664578,
        "meta_eccentricity": 0.00137118,
        "meta_inclination": 98.1255,
        "meta_ra_of_asc_node": 333.3633,
        "meta_arg_of_pericenter": 84.3178,
        "meta_mean_anomaly": 275.9599,
        "meta_ephemeris_type": 0,
        "meta_classification_type": "U",
        "meta_norad_cat_id": 29709,
        "meta_element_set_no": 999,
        "meta_rev_at_epoch": 2295,
        "meta_bstar": 0.00019608263,
        "meta_mean_motion_dot": 1.645e-05,
        "meta_mean_motion_ddot": 0,
        "tle_line1": "1 29709U 07001A   25343.27807465  .00001645  00000+0  19608-3 0  9993",
        "tle_line2": "2 29709  98.1255 333.3633 0013711  84.3178 275.9599 14.85664578 22955"
      },
      "geometry": {
        "type": "Point",
        "coordinates": [
          -30.288247289146092,
          26.025079507878782
        ]
      }
    },
    {
      "type": "Feature",
      "properties": {
        "norad_id": 31113,
        "name": "HAIYANG-1B",
        "group": "resource",
        "lat": 14.311005377125275,
        "lon": 150.1690043828206,
        "alt_km": 794.4000073119187,
        "timestamp": "2025-12-09T14:52:25.822400+00:00",
        "meta_object_name": "HAIYANG-1B",
        "meta_object_id": "2007-010A",
        "meta_epoch": "2025-12-08T23:00:03.967200",
        "meta_mean_motion": 14.30962926,
        "meta_eccentricity": 0.0014422,
        "meta_inclination": 98.331,
        "meta_ra_of_asc_node": 327.3928,
        "meta_arg_of_pericenter": 48.4955,
        "meta_mean_anomaly": 311.7464,
        "meta_ephemeris_type": 0,
        "meta_classification_type": "U",
        "meta_norad_cat_id": 31113,
        "meta_element_set_no": 999,
        "meta_rev_at_epoch": 97342,
        "meta_bstar": 9.0235e-05,
        "meta_mean_motion_dot": 1.96e-06,
        "meta_mean_motion_ddot": 0,
        "tle_line1": "1 31113U 07010A   25342.95837925  .00000196  00000+0  90235-4 0  9999",
        "tle_line2": "2 31113  98.3310 327.3928 0014422  48.4955 311.7464 14.30962926973420"
      },
      "geometry": {
        "type": "Point",
        "coordinates": [
          150.1690043828206,
          14.311005377125275
        ]
      }
    },
    {
      "type": "Feature",
      "properties": {
        "norad_id": 31598,
        "name": "COSMO-SKYMED 1",
        "group": "resource",
        "lat": -49.08140806545494,
        "lon": -20.19992385747453,
        "alt_km": 587.6304070707283,
        "timestamp": "2025-12-09T14:52:25.822411+00:00",
        "meta_object_name": "COSMO-SKYMED 1",
        "meta_object_id": "2007-023A",
        "meta_epoch": "2025-12-09T07:25:41.077344",
        "meta_mean_motion": 14.95724705,
        "meta_eccentricity": 0.00010513,
        "meta_inclination": 97.8835,
        "meta_ra_of_asc_node": 168.6865,
        "meta_arg_of_pericenter": 82.2894,
        "meta_mean_anomaly": 277.8445,
        "meta_ephemeris_type": 0,
        "meta_classification_type": "U",
        "meta_norad_cat_id": 31598,
        "meta_element_set_no": 999,
        "meta_rev_at_epoch": 139,
        "meta_bstar": 0.00053513055,
        "meta_mean_motion_dot": 5.903e-05,
        "meta_mean_motion_ddot": 0,
        "tle_line1": "1 31598U 07023A   25343.30950321  .00005903  00000+0  53513-3 0  9994",
        "tle_line2": "2 31598  97.8835 168.6865 0001051  82.2894 277.8445 14.95724705  1392"
      },
      "geometry": {
        "type": "Point",
        "coordinates": [
          -20.19992385747453,
          -49.08140806545494
        ]
      }
    },
    {
      "type": "Feature",
      "properties": {
        "norad_id": 31698,
        "name": "TERRASAR-X",
        "group": "resource",
        "lat": -16.84384457389905,
        "lon": -8.686080532094978,
        "alt_km": 513.6045302349157,
        "timestamp": "2025-12-09T14:52:25.822421+00:00",
        "meta_object_name": "TERRASAR-X",
        "meta_object_id": "2007-026A",
        "meta_epoch": "2025-12-08T12:04:27.872832",
        "meta_mean_motion": 15.19158704,
        "meta_eccentricity": 0.0001724,
        "meta_inclination": 97.4451,
        "meta_ra_of_asc_node": 347.9445,
        "meta_arg_of_pericenter": 89.3855,
        "meta_mean_anomaly": 270.7577,
        "meta_ephemeris_type": 0,
        "meta_classification_type": "U",
        "meta_norad_cat_id": 31698,
        "meta_element_set_no": 999,
        "meta_rev_at_epoch": 2427,
        "meta_bstar": 0.00014009,
        "meta_mean_motion_dot": 2.877e-05,
        "meta_mean_motion_ddot": 0,
        "tle_line1": "1 31698U 07026A   25342.50310038  .00002877  00000+0  14009-3 0  9998",
        "tle_line2": "2 31698  97.4451 347.9445 0001724  89.3855 270.7577 15.19158704 24278"
      },
      "geometry": {
        "type": "Point",
        "coordinates": [
          -8.686080532094978,
          -16.84384457389905
        ]
      }
    },
    {
      "type": "Feature",
      "properties": {
        "norad_id": 32060,
        "name": "WORLDVIEW-1 (WV-1)",
        "group": "resource",
        "lat": -75.29687251010314,
        "lon": 130.76250824733486,
        "alt_km": 499.8201332263816,
        "timestamp": "2025-12-09T14:52:25.822431+00:00",
        "meta_object_name": "WORLDVIEW-1 (WV-1)",
        "meta_object_id": "2007-041A",
        "meta_epoch": "2025-12-09T07:20:10.865184",
        "meta_mean_motion": 15.24599684,
        "meta_eccentricity": 7.422e-05,
        "meta_inclination": 97.3839,
        "meta_ra_of_asc_node": 100.8353,
        "meta_arg_of_pericenter": 103.2167,
        "meta_mean_anomaly": 256.9153,
        "meta_ephemeris_type": 0,
        "meta_classification_type": "U",
        "meta_norad_cat_id": 32060,
        "meta_element_set_no": 999,
        "meta_rev_at_epoch": 1395,
        "meta_bstar": 0.00045019607,
        "meta_mean_motion_dot": 0.00011036,
        "meta_mean_motion_ddot": 0,
        "tle_line1": "1 32060U 07041A   25343.30568131  .00011036  00000+0  45020-3 0  9991",
        "tle_line2": "2 32060  97.3839 100.8353 0000742 103.2167 256.9153 15.24599684 13957"
      },
      "geometry": {
        "type": "Point",
        "coordinates": [
          130.76250824733486,
          -75.29687251010314
        ]
      }
    },
    {
      "type": "Feature",
      "properties": {
        "norad_id": 32289,
        "name": "YAOGAN-3",
        "group": "resource",
        "lat": 34.31931449963867,
        "lon": -164.3321909354367,
        "alt_km": 595.9857699696859,
        "timestamp": "2025-12-09T14:52:25.822442+00:00",
        "meta_object_name": "YAOGAN-3",
        "meta_object_id": "2007-055A",
        "meta_epoch": "2025-12-09T07:46:36.048576",
        "meta_mean_motion": 14.89833601,
        "meta_eccentricity": 0.00014429,
        "meta_inclination": 97.8366,
        "meta_ra_of_asc_node": 9.9799,
        "meta_arg_of_pericenter": 72.3207,
        "meta_mean_anomaly": 287.8168,
        "meta_ephemeris_type": 0,
        "meta_classification_type": "U",
        "meta_norad_cat_id": 32289,
        "meta_element_set_no": 999,
        "meta_rev_at_epoch": 97758,
        "meta_bstar": 0.00039835929,
        "meta_mean_motion_dot": 3.771e-05,
        "meta_mean_motion_ddot": 0,
        "tle_line1": "1 32289U 07055A   25343.32402834  .00003771  00000+0  39836-3 0  9993",
        "tle_line2": "2 32289  97.8366   9.9799 0001442  72.3207 287.8168 14.89833601977589"
      },
      "geometry": {
        "type": "Point",
        "coordinates": [
          -164.3321909354367,
          34.31931449963867
        ]
      }
    }
  ]
}